BEIDOU 3 (C01)          
1 36287U 10001A   22111.57479740 -.00000288  00000+0  00000+0 0  9995
2 36287   1.9843  49.5881 0004372  22.6597 124.6652  1.00268325 44949
BEIDOU 5 (C06)          
1 36828U 10036A   22110.85058403 -.00000105  00000+0  00000+0 0  9991
2 36828  54.1892 176.7580 0027875 187.8560 258.4637  1.00262868 43001
BEIDOU 6 (C04)          
1 37210U 10057A   22111.62587277 -.00000120  00000+0  00000+0 0  9999
2 37210   0.7632  40.3426 0001741 186.1352   8.4470  1.00270666 42064
BEIDOU 7 (C07)          
1 37256U 10068A   22111.24662172 -.00000196  00000+0  00000+0 0  9990
2 37256  50.3150 290.3257 0019161 181.7636 294.4104  1.00267780 41579
BEIDOU 8 (C08)          
1 37384U 11013A   22111.58535513 -.00000191  00000+0  00000+0 0  9993
2 37384  60.2147  54.8197 0018151 193.5205 280.6597  1.00271017 40451
BEIDOU 9 (C09)          
1 37763U 11038A   22111.57985940 -.00000062  00000+0  00000+0 0  9990
2 37763  54.4727 179.2348 0095792 227.1775 105.0812  1.00290675 39429
BEIDOU 10 (C10)         
1 37948U 11073A   22111.45744096 -.00000145  00000+0  00000+0 0  9998
2 37948  50.4288 289.9590 0077738 217.1864 322.3018  1.00265778 38188
BEIDOU 11 (C05)         
1 38091U 12008A   22111.54285709  .00000050  00000+0  00000+0 0  9992
2 38091   1.4381  65.9120 0015291 325.6022  72.2377  1.00275166 37265
BEIDOU 12 (C11)         
1 38250U 12018A   22111.58623787 -.00000090  00000+0  00000+0 0  9991
2 38250  56.7093 355.4380 0021191 257.4031 346.2463  1.86234527 68026
BEIDOU 13 (C12)         
1 38251U 12018B   22111.42658436 -.00000089  00000+0  00000+0 0  9992
2 38251  56.6268 354.7716 0012158 263.8690 276.9842  1.86234356 68020
BEIDOU 15 (C14)         
1 38775U 12050B   22111.38616282  .00000047  00000+0  00000+0 0  9990
2 38775  55.3669 113.6044 0015383 318.8902  31.3572  1.86231411 65397
BEIDOU 16 (C02)         
1 38953U 12059A   22111.50743784 -.00000181  00000+0  00000+0 0  9999
2 38953   1.8485  84.4513 0013099 295.2418  96.4561  1.00275297 34690
BEIDOU 17 (C31)         
1 40549U 15019A   22111.32547654 -.00000151  00000+0  00000+0 0  9997
2 40549  51.9820 313.4151 0035907 188.0392 277.6697  1.00255126 25869
BEIDOU 18 (C57)         
1 40748U 15037A   22111.55637590 -.00000090  00000+0  00000+0 0  9994
2 40748  55.8807 353.6677 0005603  18.7848 158.5893  1.86233427 45852
BEIDOU 19 (C58)         
1 40749U 15037B   22111.35556390 -.00000089  00000+0  00000+0 0  9999
2 40749  55.8845 353.6638 0006026 342.6826 194.8196  1.86232333 45840
BEIDOU 20 (C18)         
1 40938U 15053A   22111.32799390 -.00000124  00000+0  00000+0 0  9993
2 40938  51.5911 276.5243 0044895 193.0526 312.2653  1.00258882 24139
BEIDOU IGSO-6 (C13)     
1 41434U 16021A   22111.55199831 -.00000155  00000+0  00000+0 0  9994
2 41434  58.0221  53.4255 0044849 220.4228 227.7392  1.00293788 22261
BEIDOU-2 G7 (C03)       
1 41586U 16037A   22111.51855014 -.00000360  00000+0  00000+0 0  9995
2 41586   1.8527  68.9394 0009297   0.8747  76.9808  1.00273126 21576
BEIDOU-3 M1 (C19)       
1 43001U 17069A   22111.18241968  .00000047  00000+0  00000+0 0  9996
2 43001  55.5205 113.6037 0012430 290.5375  79.3255  1.86231762 30330
BEIDOU-3 M2 (C20)       
1 43002U 17069B   22110.69651973  .00000047  00000+0  00000+0 0  9993
2 43002  55.5196 113.6562 0010467 307.3099 139.8871  1.86231457 30316
BEIDOU-3 M3 (C27)       
1 43107U 18003A   22110.64005431 -.00000087  00000+0  00000+0 0  9990
2 43107  55.3308 354.6423 0005702  46.0295 169.3642  1.86232527 29073
BEIDOU-3 M4 (C28)       
1 43108U 18003B   22110.98039984 -.00000089  00000+0  00000+0 0  9990
2 43108  55.3238 354.6198 0002331 276.5209 211.2734  1.86230998 29085
BEIDOU-3 M5 (C21)       
1 43207U 18018A   22111.23539878  .00000047  00000+0  00000+0 0  9995
2 43207  55.4794 113.7178 0007428 322.4376  37.5235  1.86231672 28470
BEIDOU-3 M6 (C22)       
1 43208U 18018B   22111.30202673  .00000047  00000+0  00000+0 0  9994
2 43208  55.4787 113.7210 0010449 299.5159  60.3916  1.86231588 28476
BEIDOU-3 M7 (C29)       
1 43245U 18029A   22111.30844709 -.00000088  00000+0  00000+0 0  9995
2 43245  55.2467 352.3920 0001471  17.1361 196.7658  1.86232635 27620
BEIDOU-3 M8 (C30)       
1 43246U 18029B   22110.69820051 -.00000086  00000+0  10000-3 0  9994
2 43246  55.2440 352.4423 0005264   3.2136 208.0302  1.86232850 27601
BEIDOU IGSO-7 (C16)     
1 43539U 18057A   22110.62603213 -.00000106  00000+0  00000+0 0  9990
2 43539  55.0717 176.2162 0047778 226.0143 143.4639  1.00275819 13936
BEIDOU-3 M9 (C23)       
1 43581U 18062A   22111.59585591  .00000007  00000+0  00000+0 0  9997
2 43581  54.2931 234.0305 0002526 279.5266  24.4112  1.86231806 25361
BEIDOU-3 M10 (C24)      
1 43582U 18062B   22110.74007698  .00000016  00000+0  00000+0 0  9991
2 43582  54.2947 234.0491 0005292  20.0946 161.8103  1.86232042 25350
BEIDOU-3 M11 (C25)      
1 43602U 18067A   22111.49282017  .00000008  00000+0  00000+0 0  9993
2 43602  54.3757 232.6325 0007106  13.0323 355.0671  1.86231741 24867
BEIDOU-3 M12 (C26)      
1 43603U 18067B   22111.61504153  .00000007  00000+0  00000+0 0  9995
2 43603  54.3722 232.5956 0004148   4.9387 355.4900  1.86231674 24887
BEIDOU-3 M13 (C32)      
1 43622U 18072A   22111.12130716  .00000047  00000+0  00000+0 0  9992
2 43622  55.4456 113.2785 0008937 286.8218 132.0267  1.86231694 24385
BEIDOU-3 M14 (C33)      
1 43623U 18072B   22110.97608501  .00000047  00000+0  00000+0 0  9997
2 43623  55.4479 113.2757 0006833 303.9104 107.8079  1.86231678 24381
BEIDOU-3 M15 (C34)      
1 43647U 18078A   22111.32045088 -.00000089  00000+0  10000-3 0  9996
2 43647  55.1412 352.5542 0007671   7.0936 170.9912  1.86232892 23898
BEIDOU-3 M16 (C35)      
1 43648U 18078B   22111.30273119 -.00000089  00000+0  00000+0 0  9998
2 43648  55.1380 352.5615 0005682  15.3323  58.7709  1.86232300 23910
BEIDOU-3 G1 (C59)       
1 43683U 18085A   22111.54712681 -.00000284  00000+0  00000+0 0  9990
2 43683   0.8483 175.9586 0002965 321.7887  48.8809  1.00271544 12844
BEIDOU-3 M17 (C36)      
1 43706U 18093A   22110.27000231  .00000020  00000+0  00000+0 0  9992
2 43706  54.3760 233.9570 0008342 274.8129  85.0786  1.86231646 23259
BEIDOU-3 M18 (C37)      
1 43707U 18093B   22109.86037780  .00000022  00000+0  00000+0 0  9997
2 43707  54.3775 233.9614 0006844 306.9368 229.4871  1.86232263 23235
BEIDOU-3 IGSO-1 (C38)   
1 44204U 19023A   22111.41669984 -.00000222  00000+0  00000+0 0  9998
2 44204  56.4781  53.5819 0019671 204.8283 220.4227  1.00275416 11141
BEIDOU-2 G8             
1 44231U 19027A   22111.60731471 -.00000253  00000+0  00000+0 0  9998
2 44231   0.7271  73.1316 0004039 135.2820   4.4449  1.00270856 10859
BEIDOU-3 IGSO-2 (C39)   
1 44337U 19035A   22111.55515485 -.00000118  00000+0  00000+0 0  9993
2 44337  55.1113 172.2308 0023094 195.1798 161.1919  1.00270481 10473
BEIDOU-3 M23 (C45)      
1 44542U 19061A   22110.74258335  .00000017  00000+0  00000+0 0  9995
2 44542  54.6018 234.0715 0007438 343.0860  16.8770  1.86231096 17523
BEIDOU-3 M24 (C46)      
1 44543U 19061B   22111.51273216  .00000009  00000+0  00000+0 0  9998
2 44543  54.6005 234.0138 0004690 340.4194  87.1227  1.86231622 17520
BEIDOU-3 IGSO-3         
1 44709U 19073A   22111.41141197 -.00000173  00000+0  00000+0 0  9999
2 44709  57.3579 296.9698 0021327 172.0573   8.0901  1.00273600  9232
BEIDOU-3 M21            
1 44793U 19078A   22110.73563838 -.00000086  00000+0  10000-3 0  9999
2 44793  54.9905 352.6038 0007504  12.2246  87.7508  1.86232242 16373
BEIDOU-3 M22            
1 44794U 19078B   22111.52618975 -.00000090  00000+0  00000+0 0  9991
2 44794  54.9631 352.5687 0005450   8.7569 172.8075  1.86232784 16382
BEIDOU-3 M19            
1 44864U 19090A   22110.59036730  .00000047  00000+0  00000+0 0  9993
2 44864  55.3802 113.5111 0018953 271.9425 196.6887  1.86231868 15958
BEIDOU-3 M20            
1 44865U 19090B   22110.89236316  .00000047  00000+0  00000+0 0  9999
2 44865  55.3824 113.5323 0017391 284.2442 116.7403  1.86231888 15936
BEIDOU-3 G2             
1 45344U 20017A   22111.50743784 -.00000149  00000+0  00000+0 0  9998
2 45344   2.1083 349.2672 0003976  89.8949  33.1057  1.00271759  8044
BEIDOU-3 G3             
1 45807U 20040A   22111.53729771 -.00000362  00000+0  00000+0 0  9998
2 45807   1.5724 301.9491 0005594 338.2981 233.2966  1.00274522  6852
